 1996  625 0337 32.9 L  61.588   3.495 15.1  TES 31 1.0 3.2LTES 3.0CTES 3.2LNAO1
 GAP=149        4.16       7.1    17.8 12.6 -0.3000E+02  0.5936E+02 -0.1012E+02E
 1996  625 0337 31.9 L                       BER        3.1WBER                1
     327.2      62.0     -11.2     0                                           3
 ACTION:UP  15-03-09 16:38 OP:jh   STATUS:               ID:19960625033732 L   I
 OLDACT:SPL 14-12-11 12:04 OP:jh   STATUS:               ID:19960625033732 L   3
 1996-06-25-0337-20S.NNSN__039                                                 6
 STAT SP IPHASW D HRMM SECON CODA AMPLIT PERI AZIMU VELO AIN AR TRES W  DIS CAZ7
 FOO  SZ IP        337 46.12  147                         94    0.0910 82.2  89 
 FOO  SZ IS        337 56.01                              94    0.2610 82.2  89 
 FOO  SZ  IAML     337 58.79      1481.9  0.3                          82.2  89 
 SUE  SZ IP        337 47.84  157                         93    0.6410 90.0 131 
 SUE  SZ ES        337 58.95                              93    1.1710 90.0 131 
 SUE  AZ E         337 58.97                                           90.0 131 
 SUE  SZ  IAML     337 59.32      1243.7  0.5                          90.0 131 
 OSG  SZ EP   2    337 53.17   78                         55    0.70 5  126 196 
 OSG  SE ES   2    338  9.32                              55    2.36 5  126 196 
 OSG  AN E         338  9.42                                            126 196 
 HYA  SZ IP        337 55.46  154                         55   -0.1710  151 107 
 HYA  SZ ES        338 13.94                              55    1.4810  151 107 
 HYA  SZ  IAML     338 19.41      1660.5 0.70                           151 107 
 ASK  SZ IP        337 56.28  204                         55    0.3810  154 143 
 BER  SZ IP        337 57.79                              55    0.2210  167 143 
 EGD  SZ IP        337 58.78  169                         55    0.3310  174 147 
 MOL  SZ IP        338  6.15  248                         55   -0.2910  238  61 
 MOL  AZ E         338  6.65                                            238  61 
 MOL  SN ES        338 30.77                              55   -0.5010  238  61 
 MOL  SN  IAML     338 42.68       684.7  0.4                           238  61 
 KMY  SZ IP        338 12.05  131                         55    0.2310  282 159 
 KMY  SN ES        338 40.66                              55    0.0210  282 159 
 KMY  SN  IAML     338 42.79       354.2  0.2                           282 159 
 BLS5 SZ IP        338 13.65  230                         55    0.6410  291 145 
 BLS5 SZ ES        338 42.38                              55   -0.3210  291 145 
 BLS5 SZ  IAML     338 43.82       481.2  0.2                           291 145 
 LRW  SZ EP   2   0338 13.79                              55   -0.43 5  301 240 
 LRW  SE ES   3   0338 43.75                              55   -1.05 2  301 240 
 LRW  SN          0338 46.26         87. 0.16                           301 240 
 LRW  SE          0338 46.49         88. 0.19                           301 240 
 KONO BN EP        338 25.88                              55   -0.3610  398 120 
 KONO BZ IP        338 26.15                              55            398 120 
 KONO BN ES        339  5.37                              55   -0.3510  398 120 
 KONO BZ ES        339  5.62                              55            398 120 
 KONO BN  IAML     339  7.18        79.2  0.2                           398 120 
 OWE  SZ EP   3   0338 31.19                              53   -0.07 2  439 238 
 NRA0 SZ  Pn      0338 31.04                  293.2  9.0  55  7-0.8610  443  99 
 NRA0 SZ  Sn      0339 15.87                  296.7  4.8  55 11 0.3010  443  99 
 NRA0 SZ  Lg      0339 34.54                  280.9  4.2   0 -4-1.4410  443  99 
 OHO  SZ EP   3   0338 36.20                              53   -0.46 2  483 234 
 OBR  SZ EP   2   0338 37.79                              53   -0.45 5  496 231 
 ORE  SZ EP   2   0338 41.59                              53   -0.32 5  527 233 
 NSS  SN EP        338 43.13  288                         53   -0.2610  539  49 
 NSS  SN ES        339 35.79                              53    0.2310  539  49 
 MFI  SZ EP   3   0338 44.24                              53   -0.52 2  550 219 
 OTO  SZ EP   2   0338 45.15                              53   -0.57 5  558 235 
 HFS  SZ  Pn      0338 47.52                  287.4  7.9  55 -2-0.9810  577 102 
 HFS  SZ  Sn      0339 43.36                  284.1  4.4  55 -6-1.1010  577 102 
 HFS  SZ  Lg      0340 15.43                  298.8  3.6   0  8 2.3210  577 102 
 MCD  SZ EP   2   0338 48.65                              53   -0.46 5  586 223 
 MCD  SE ES   3   0339 43.99                              53   -1.53 2  586 223 
 MDO  SZ EP   3   0338 55.69                              53   -0.04 2  640 227 
 EDU  SZ EP   3   0338 59.60                              53   -0.12 2  674 216 
 ESY  SZ EP   3   0339  5.89                              51    0.27 2  723 212 
 EDI  SZ EP   3   0339  7.61                              51    0.13 2  739 214 
 EDI  SN ES   3   0340 16.07                              51   -1.42 2  739 214 
 MOR8 SZ IP        339 10.07                              51    2.4310  740  42 
 MOR8 SZ ES        340 25.51                              51    7.7510  740  42 
 LOF  SZ EP        339 22.01                              51   -0.7710  869  29 
 FIA0 SZ  Pn      0340 03.10                  288.5 10.2  55  8-2.32 9 1196  81 
 FIA0 SZ  Sn      0341 56.30                  276.7  4.9  55 -3-2.00 9 1196  81 
 FIA0 SZ  Lg      0343 03.23                  278.6  4.0   0 -1-1.92 9 1196  81 
 ARA0 SZ  Pn      0340 18.38                  232.4  8.3  55 -6-4.37 8 1335  39 
 ARA0 SZ  Sn      0342 25.26                  229.0  5.3  55 -9-3.18 8 1335  39 
 ARA0 SZ  Lg      0343 45.98                               0    2.16 8 1335  39 
 APA0 SZ  Pn      0340 46.00                              55   -2.67 6 1544  52 
 APA0 SZ  Sn      0343 08.53                              55   -5.02 6 1544  52 
 APA0 SZ  Lg      0344 42.46                               0    0.63 6 1544  52 
                                                                                
