 1996  6 3 1955 35.7 D  47.769 153.216  0.7  TES 12 1.1 5.0sTES 6.1bTES 5.6bPDE1
 GAP=348        2.88     999.9   999.9999.9 -0.1405E+08 -0.3810E+08  0.1204E+09E
 1996 0603 1955 31.8 D  46.787153.722  33.0  PDE        5.6bPDE                1
 ACTION:UP  15-03-09 16:34 OP:jh   STATUS:               ID:19960603195535 L   I
 OLDACT:SPL 14-12-11 12:04 OP:jh   STATUS:               ID:19960603195535 L   3
 no-eqs.gif                                                                    P
 1996-06-03-2002-18S.TEST__012                                                 6
 1996-06-03-1917-52S.TEST__002                                                 6
 STAT SP IPHASW D HRMM SECON CODA AMPLIT PERI AZIMU VELO AIN AR TRES W  DIS CAZ7
 KBS  BZ EP       20 4 40.63                              23   -1.3210 5723 351 
 KBS  LZ  IAMs_20 2026 45.90      1454.7 18.0                          5723 351 
 TRO  SZ EP       20 5 32.5                               21    1.7610 6470 343 
 LOF  SZ IP     C 20 5 46.68                              21   -0.1010 6728 344 
 JNW  SZ EP       20 5 49.5                               21    1.1910 6754 353 
 JMI  LZ I        20 8 27.35                                           6767 353 
 JMI  LZ I        2014 41.56                                           6767 353 
 JMI  LZ I        2021 25.49                                           6767 353 
 MOL  SZ IP     C 20 6 25.49                              19   -1.7410 7407 343 
 FOO  SZ EP       20 6 35.99                              19    0.1110 7558 344 
 FOO  SZ  IAmb    20 6 36.87       213.1 1.08                          7558 344 
 HYA  SZ EP       20 6 36.91                              19   -0.1410 7579 343 
 SUE  SZ IP     C 20 6 39.07                              19   -0.2910 7620 344 
 KONO BZ IP     C 20 6 40.72                              19   -0.7010 7655 341 
 ASK  SZ EP   9   20 6 37.24                              19   -4.95 0 7670 344 
 BER  SZ EP   9   20 6 37.43                              19   -5.17 0 7677 344 
 EGD  SZ EP   9   20 6 38.42                              19   -4.95 0 7691 344 
 ODD1 SZ EP       20 6 45.57                              19    1.7210 7698 343 
 BLS5 SZ EP       20 6 46.33                              19   -0.5010 7752 343 
 BLS5 SZ  IAmb    20 6 48.03        94.2 0.92                          7752 343 
                                                                                
